[
    {
        "Altitude(m)": 624792.7466887995,
        "Argument of Periapsis(deg)": 0.0,
        "Eccentricity": 0.0,
        "Inclination(deg)": 60.0,
        "Latitude(deg)": -59.14701061830027,
        "Longitude(deg)": 139.0262796068632,
        "Mean Anomaly(deg)": -98.18179999999998,
        "RAAN(deg)": 345.0,
        "Satellite Name": "Test1 1534",
        "Satellite Number": 1534,
        "Semi-Major Axis(m)": 6980739.136638005,
        "Time(s)": 0
    },
    {
        "Altitude(m)": 624842.1392742081,
        "Argument of Periapsis(deg)": 0.00010418945913296404,
        "Eccentricity": 0.0,
        "Inclination(deg)": 60.0,
        "Latitude(deg)": -59.28909567992012,
        "Longitude(deg)": 140.15578045607882,
        "Mean Anomaly(deg)": -97.56169385453813,
        "RAAN(deg)": 344.99957995086027,
        "Satellite Name": "Test1 1534",
        "Satellite Number": 1534,
        "Semi-Major Axis(m)": 6980739.136638005,
        "Time(s)": 10
    }
]